{
  "type": "FeatureCollection",
  "features": [
    {
      "type": "Feature",
      "properties": {
        "norad_id": 37331,
        "name": "COSMOS 2251 DEB",
        "group": "cosmos-2251-debris",
        "lat": -14.561930370818649,
        "lon": 42.14605075796691,
        "alt_km": 766.9638698977969,
        "timestamp": "2025-12-24T11:33:00.416433+00:00",
        "meta_object_name": "COSMOS 2251 DEB",
        "meta_object_id": "1993-036BKX",
        "meta_epoch": "2025-12-20T20:37:09.916320",
        "meta_mean_motion": 14.35041344,
        "meta_eccentricity": 0.0055285,
        "meta_inclination": 74.0747,
        "meta_ra_of_asc_node": 53.0207,
        "meta_arg_of_pericenter": 64.7623,
        "meta_mean_anomaly": 295.9246,
        "meta_ephemeris_type": 0,
        "meta_classification_type": "U",
        "meta_norad_cat_id": 37331,
        "meta_element_set_no": 999,
        "meta_rev_at_epoch": 84876,
        "meta_bstar": 0.00030498,
        "meta_mean_motion_dot": 8.59e-06,
        "meta_mean_motion_ddot": 0,
        "tle_line1": "1 37331U 93036BKX 25354.85914255  .00000859  00000+0  30498-3 0  9994",
        "tle_line2": "2 37331  74.0747  53.0207 0055285  64.7623 295.9246 14.35041344848767"
      },
      "geometry": {
        "type": "Point",
        "coordinates": [
          42.14605075796691,
          -14.561930370818649
        ]
      }
    },
    {
      "type": "Feature",
      "properties": {
        "norad_id": 37336,
        "name": "COSMOS 2251 DEB",
        "group": "cosmos-2251-debris",
        "lat": -47.369374378346365,
        "lon": 147.89303681592568,
        "alt_km": 807.7077880487286,
        "timestamp": "2025-12-24T11:33:00.416443+00:00",
        "meta_object_name": "COSMOS 2251 DEB",
        "meta_object_id": "1993-036BLC",
        "meta_epoch": "2025-12-17T07:33:13.175712",
        "meta_mean_motion": 14.32760586,
        "meta_eccentricity": 0.00290162,
        "meta_inclination": 74.0414,
        "meta_ra_of_asc_node": 322.8603,
        "meta_arg_of_pericenter": 39.1846,
        "meta_mean_anomaly": 321.1399,
        "meta_ephemeris_type": 0,
        "meta_classification_type": "U",
        "meta_norad_cat_id": 37336,
        "meta_element_set_no": 999,
        "meta_rev_at_epoch": 65185,
        "meta_bstar": 6.9199726e-05,
        "meta_mean_motion_dot": 1.63e-06,
        "meta_mean_motion_ddot": 0,
        "tle_line1": "1 37336U 93036BLC 25351.31473583  .00000163  00000+0  69200-4 0  9993",
        "tle_line2": "2 37336  74.0414 322.8603 0029016  39.1846 321.1399 14.32760586651852"
      },
      "geometry": {
        "type": "Point",
        "coordinates": [
          147.89303681592568,
          -47.369374378346365
        ]
      }
    },
    {
      "type": "Feature",
      "properties": {
        "norad_id": 37340,
        "name": "COSMOS 2251 DEB",
        "group": "cosmos-2251-debris",
        "lat": -73.54980682696437,
        "lon": 151.52001368822133,
        "alt_km": 773.7251478268299,
        "timestamp": "2025-12-24T11:33:00.416454+00:00",
        "meta_object_name": "COSMOS 2251 DEB",
        "meta_object_id": "1993-036BLG",
        "meta_epoch": "2025-12-19T03:19:36.196032",
        "meta_mean_motion": 14.36930541,
        "meta_eccentricity": 0.00180628,
        "meta_inclination": 74.0254,
        "meta_ra_of_asc_node": 265.3825,
        "meta_arg_of_pericenter": 358.9051,
        "meta_mean_anomaly": 1.206,
        "meta_ephemeris_type": 0,
        "meta_classification_type": "U",
        "meta_norad_cat_id": 37340,
        "meta_element_set_no": 999,
        "meta_rev_at_epoch": 84159,
        "meta_bstar": 0.00014760605,
        "meta_mean_motion_dot": 4.11e-06,
        "meta_mean_motion_ddot": 0,
        "tle_line1": "1 37340U 93036BLG 25353.13861338  .00000411  00000+0  14761-3 0  9996",
        "tle_line2": "2 37340  74.0254 265.3825 0018062 358.9051   1.2060 14.36930541841592"
      },
      "geometry": {
        "type": "Point",
        "coordinates": [
          151.52001368822133,
          -73.54980682696437
        ]
      }
    },
    {
      "type": "Feature",
      "properties": {
        "norad_id": 37483,
        "name": "COSMOS 2251 DEB",
        "group": "cosmos-2251-debris",
        "lat": -57.48727434033407,
        "lon": 94.62551773935452,
        "alt_km": 693.6300558957491,
        "timestamp": "2025-12-24T11:33:00.416464+00:00",
        "meta_object_name": "COSMOS 2251 DEB",
        "meta_object_id": "1993-036BLL",
        "meta_epoch": "2025-12-24T01:50:58.185312",
        "meta_mean_motion": 14.43572585,
        "meta_eccentricity": 0.0093656,
        "meta_inclination": 73.9741,
        "meta_ra_of_asc_node": 122.1834,
        "meta_arg_of_pericenter": 326.1341,
        "meta_mean_anomaly": 33.3856,
        "meta_ephemeris_type": 0,
        "meta_classification_type": "U",
        "meta_norad_cat_id": 37483,
        "meta_element_set_no": 999,
        "meta_rev_at_epoch": 65443,
        "meta_bstar": 0.00021,
        "meta_mean_motion_dot": 7.21e-06,
        "meta_mean_motion_ddot": 0,
        "tle_line1": "1 37483U 93036BLL 25358.07706233  .00000721  00000+0  21000-3 0  9992",
        "tle_line2": "2 37483  73.9741 122.1834 0093656 326.1341  33.3856 14.43572585654432"
      },
      "geometry": {
        "type": "Point",
        "coordinates": [
          94.62551773935452,
          -57.48727434033407
        ]
      }
    },
    {
      "type": "Feature",
      "properties": {
        "norad_id": 37484,
        "name": "COSMOS 2251 DEB",
        "group": "cosmos-2251-debris",
        "lat": 61.51748358545812,
        "lon": -25.954309485733063,
        "alt_km": 753.6981173147205,
        "timestamp": "2025-12-24T11:33:00.416474+00:00",
        "meta_object_name": "COSMOS 2251 DEB",
        "meta_object_id": "1993-036BLM",
        "meta_epoch": "2025-12-23T22:01:02.179776",
        "meta_mean_motion": 14.41832075,
        "meta_eccentricity": 0.0039304,
        "meta_inclination": 73.821,
        "meta_ra_of_asc_node": 187.4539,
        "meta_arg_of_pericenter": 220.8433,
        "meta_mean_anomaly": 207.6544,
        "meta_ephemeris_type": 0,
        "meta_classification_type": "U",
        "meta_norad_cat_id": 37484,
        "meta_element_set_no": 999,
        "meta_rev_at_epoch": 65540,
        "meta_bstar": 0.00075175,
        "meta_mean_motion_dot": 2.453e-05,
        "meta_mean_motion_ddot": 0,
        "tle_line1": "1 37484U 93036BLM 25357.91738634  .00002453  00000+0  75175-3 0  9991",
        "tle_line2": "2 37484  73.8210 187.4539 0039304 220.8433 207.6544 14.41832075655400"
      },
      "geometry": {
        "type": "Point",
        "coordinates": [
          -25.954309485733063,
          61.51748358545812
        ]
      }
    },
    {
      "type": "Feature",
      "properties": {
        "norad_id": 37486,
        "name": "COSMOS 2251 DEB",
        "group": "cosmos-2251-debris",
        "lat": -64.48893131336679,
        "lon": -48.792087019744066,
        "alt_km": 792.4126547352889,
        "timestamp": "2025-12-24T11:33:00.416485+00:00",
        "meta_object_name": "COSMOS 2251 DEB",
        "meta_object_id": "1993-036BLP",
        "meta_epoch": "2025-12-24T00:59:33.370080",
        "meta_mean_motion": 14.13420385,
        "meta_eccentricity": 0.0231277,
        "meta_inclination": 73.6928,
        "meta_ra_of_asc_node": 94.1642,
        "meta_arg_of_pericenter": 320.3545,
        "meta_mean_anomaly": 214.7094,
        "meta_ephemeris_type": 0,
        "meta_classification_type": "U",
        "meta_norad_cat_id": 37486,
        "meta_element_set_no": 999,
        "meta_rev_at_epoch": 63529,
        "meta_bstar": 0.0020438,
        "meta_mean_motion_dot": 4.932e-05,
        "meta_mean_motion_ddot": 0,
        "tle_line1": "1 37486U 93036BLP 25358.04135845  .00004932  00000+0  20438-2 0  9998",
        "tle_line2": "2 37486  73.6928  94.1642 0231277 320.3545 214.7094 14.13420385635298"
      },
      "geometry": {
        "type": "Point",
        "coordinates": [
          -48.792087019744066,
          -64.48893131336679
        ]
      }
    },
    {
      "type": "Feature",
      "properties": {
        "norad_id": 37487,
        "name": "COSMOS 2251 DEB",
        "group": "cosmos-2251-debris",
        "lat": -21.1797778727135,
        "lon": 162.30673694428805,
        "alt_km": 612.5739032418851,
        "timestamp": "2025-12-24T11:33:00.416495+00:00",
        "meta_object_name": "COSMOS 2251 DEB",
        "meta_object_id": "1993-036BLQ",
        "meta_epoch": "2025-12-12T06:17:24.389376",
        "meta_mean_motion": 14.80982589,
        "meta_eccentricity": 0.00255931,
        "meta_inclination": 73.9026,
        "meta_ra_of_asc_node": 193.0379,
        "meta_arg_of_pericenter": 31.2136,
        "meta_mean_anomaly": 329.0553,
        "meta_ephemeris_type": 0,
        "meta_classification_type": "U",
        "meta_norad_cat_id": 37487,
        "meta_element_set_no": 999,
        "meta_rev_at_epoch": 81238,
        "meta_bstar": 0.0042593386,
        "meta_mean_motion_dot": 0.00033302,
        "meta_mean_motion_ddot": 0,
        "tle_line1": "1 37487U 93036BLQ 25346.26208784  .00033302  00000+0  42593-2 0  9992",
        "tle_line2": "2 37487  73.9026 193.0379 0025593  31.2136 329.0553 14.80982589812383"
      },
      "geometry": {
        "type": "Point",
        "coordinates": [
          162.30673694428805,
          -21.1797778727135
        ]
      }
    }
  ]
}